KUIPER-00095            
1 65134U 25171C   25311.00003472 -.00256661  00000+0 -81248-2 0  9995
2 65134  51.8776 342.4593 0004386  69.8957 181.7628 15.33258169  5810
KUIPER-00096            
1 65135U 25171D   25311.00003472  .00025857  00000+0  14148-2 0  9990
2 65135  51.8820 343.8578 0011389  82.6967 203.1744 15.14036091  5796
KUIPER-00097            
1 65136U 25171E   25311.00003472  .00039207  00000+0  25444-2 0  9996
2 65136  51.8915 345.4914 0008788  96.4736  38.9260 15.07662725  4933
KUIPER-00098            
1 65137U 25171F   25311.00003472 -.00081527  00000+0 -66776-2 0  9994
2 65137  51.8940 346.6128 0007975  87.7115 281.7875 14.99164530  3922
KUIPER-00099            
1 65138U 25171G   25311.00003472 -.01194682  00000+0 -48611-1 0  9990
2 65138  51.8814 342.6658 0008083  87.3444  99.1905 15.26725277  5210
KUIPER-00100            
1 65139U 25171H   25311.00003472 -.00597507  00000+0 -20304-1 0  9992
2 65139  51.8784 342.3307 0004917  58.3538 273.2917 15.32074107  2636
KUIPER-00102            
1 65140U 25171J   25311.00003472 -.01405851  00000+0 -54249-1 0  9990
2 65140  51.8789 342.7744 0007922  71.1681  25.3476 15.28936392  4864
KUIPER-00103            
1 65141U 25171K   25310.52356663  .00005328  00000+0  72881-3 0  9996
2 65141  51.8991 355.2247 0006990  89.2975 270.8788 14.79843269 14473
