<?xml version="1.0" encoding="UTF-8"?>
<ndm xmlns:xsi="http://www.w3.org/2001/XMLSchema-instance" xsi:noNamespaceSchemaLocation="https://sanaregistry.org/r/ndmxml_unqualified/ndmxml-2.0.0-master-2.0.xsd">
<omm id="CCSDS_OMM_VERS" version="2.0">
<header><CREATION_DATE/><ORIGINATOR/></header><body><segment><metadata><OBJECT_NAME>KUIPER-00095</OBJECT_NAME><OBJECT_ID>2025-171C</OBJECT_ID><CENTER_NAME>EARTH</CENTER_NAME><REF_FRAME>TEME</REF_FRAME><TIME_SYSTEM>UTC</TIME_SYSTEM><MEAN_ELEMENT_THEORY>SGP4</MEAN_ELEMENT_THEORY></metadata><data><meanElements><EPOCH>2025-11-07T00:00:02.999808</EPOCH><MEAN_MOTION>15.33258169</MEAN_MOTION><ECCENTRICITY>.00043861</ECCENTRICITY><INCLINATION>51.8776</INCLINATION><RA_OF_ASC_NODE>342.4593</RA_OF_ASC_NODE><ARG_OF_PERICENTER>69.8957</ARG_OF_PERICENTER><MEAN_ANOMALY>181.7628</MEAN_ANOMALY></meanElements><tleParameters><EPHEMERIS_TYPE>0</EPHEMERIS_TYPE><CLASSIFICATION_TYPE>U</CLASSIFICATION_TYPE><NORAD_CAT_ID>65134</NORAD_CAT_ID><ELEMENT_SET_NO>999</ELEMENT_SET_NO><REV_AT_EPOCH>581</REV_AT_EPOCH><BSTAR>-.81248016E-2</BSTAR><MEAN_MOTION_DOT>-.256661E-2</MEAN_MOTION_DOT><MEAN_MOTION_DDOT>0</MEAN_MOTION_DDOT></tleParameters></data></segment></body></omm>
<omm id="CCSDS_OMM_VERS" version="2.0">
<header><CREATION_DATE/><ORIGINATOR/></header><body><segment><metadata><OBJECT_NAME>KUIPER-00096</OBJECT_NAME><OBJECT_ID>2025-171D</OBJECT_ID><CENTER_NAME>EARTH</CENTER_NAME><REF_FRAME>TEME</REF_FRAME><TIME_SYSTEM>UTC</TIME_SYSTEM><MEAN_ELEMENT_THEORY>SGP4</MEAN_ELEMENT_THEORY></metadata><data><meanElements><EPOCH>2025-11-07T00:00:02.999808</EPOCH><MEAN_MOTION>15.14036091</MEAN_MOTION><ECCENTRICITY>.00113895</ECCENTRICITY><INCLINATION>51.8820</INCLINATION><RA_OF_ASC_NODE>343.8578</RA_OF_ASC_NODE><ARG_OF_PERICENTER>82.6967</ARG_OF_PERICENTER><MEAN_ANOMALY>203.1744</MEAN_ANOMALY></meanElements><tleParameters><EPHEMERIS_TYPE>0</EPHEMERIS_TYPE><CLASSIFICATION_TYPE>U</CLASSIFICATION_TYPE><NORAD_CAT_ID>65135</NORAD_CAT_ID><ELEMENT_SET_NO>999</ELEMENT_SET_NO><REV_AT_EPOCH>579</REV_AT_EPOCH><BSTAR>.14148102E-2</BSTAR><MEAN_MOTION_DOT>.25857E-3</MEAN_MOTION_DOT><MEAN_MOTION_DDOT>0</MEAN_MOTION_DDOT></tleParameters></data></segment></body></omm>
<omm id="CCSDS_OMM_VERS" version="2.0">
<header><CREATION_DATE/><ORIGINATOR/></header><body><segment><metadata><OBJECT_NAME>KUIPER-00097</OBJECT_NAME><OBJECT_ID>2025-171E</OBJECT_ID><CENTER_NAME>EARTH</CENTER_NAME><REF_FRAME>TEME</REF_FRAME><TIME_SYSTEM>UTC</TIME_SYSTEM><MEAN_ELEMENT_THEORY>SGP4</MEAN_ELEMENT_THEORY></metadata><data><meanElements><EPOCH>2025-11-07T00:00:02.999808</EPOCH><MEAN_MOTION>15.07662725</MEAN_MOTION><ECCENTRICITY>.00087887</ECCENTRICITY><INCLINATION>51.8915</INCLINATION><RA_OF_ASC_NODE>345.4914</RA_OF_ASC_NODE><ARG_OF_PERICENTER>96.4736</ARG_OF_PERICENTER><MEAN_ANOMALY>38.9260</MEAN_ANOMALY></meanElements><tleParameters><EPHEMERIS_TYPE>0</EPHEMERIS_TYPE><CLASSIFICATION_TYPE>U</CLASSIFICATION_TYPE><NORAD_CAT_ID>65136</NORAD_CAT_ID><ELEMENT_SET_NO>999</ELEMENT_SET_NO><REV_AT_EPOCH>493</REV_AT_EPOCH><BSTAR>.25444366E-2</BSTAR><MEAN_MOTION_DOT>.39207E-3</MEAN_MOTION_DOT><MEAN_MOTION_DDOT>0</MEAN_MOTION_DDOT></tleParameters></data></segment></body></omm>
<omm id="CCSDS_OMM_VERS" version="2.0">
<header><CREATION_DATE/><ORIGINATOR/></header><body><segment><metadata><OBJECT_NAME>KUIPER-00098</OBJECT_NAME><OBJECT_ID>2025-171F</OBJECT_ID><CENTER_NAME>EARTH</CENTER_NAME><REF_FRAME>TEME</REF_FRAME><TIME_SYSTEM>UTC</TIME_SYSTEM><MEAN_ELEMENT_THEORY>SGP4</MEAN_ELEMENT_THEORY></metadata><data><meanElements><EPOCH>2025-11-07T00:00:02.999808</EPOCH><MEAN_MOTION>14.99164530</MEAN_MOTION><ECCENTRICITY>.00079758</ECCENTRICITY><INCLINATION>51.8940</INCLINATION><RA_OF_ASC_NODE>346.6128</RA_OF_ASC_NODE><ARG_OF_PERICENTER>87.7115</ARG_OF_PERICENTER><MEAN_ANOMALY>281.7875</MEAN_ANOMALY></meanElements><tleParameters><EPHEMERIS_TYPE>0</EPHEMERIS_TYPE><CLASSIFICATION_TYPE>U</CLASSIFICATION_TYPE><NORAD_CAT_ID>65137</NORAD_CAT_ID><ELEMENT_SET_NO>999</ELEMENT_SET_NO><REV_AT_EPOCH>392</REV_AT_EPOCH><BSTAR>-.66776439E-2</BSTAR><MEAN_MOTION_DOT>-.81527E-3</MEAN_MOTION_DOT><MEAN_MOTION_DDOT>0</MEAN_MOTION_DDOT></tleParameters></data></segment></body></omm>
<omm id="CCSDS_OMM_VERS" version="2.0">
<header><CREATION_DATE/><ORIGINATOR/></header><body><segment><metadata><OBJECT_NAME>KUIPER-00099</OBJECT_NAME><OBJECT_ID>2025-171G</OBJECT_ID><CENTER_NAME>EARTH</CENTER_NAME><REF_FRAME>TEME</REF_FRAME><TIME_SYSTEM>UTC</TIME_SYSTEM><MEAN_ELEMENT_THEORY>SGP4</MEAN_ELEMENT_THEORY></metadata><data><meanElements><EPOCH>2025-11-07T00:00:02.999808</EPOCH><MEAN_MOTION>15.26725277</MEAN_MOTION><ECCENTRICITY>.00080834</ECCENTRICITY><INCLINATION>51.8814</INCLINATION><RA_OF_ASC_NODE>342.6658</RA_OF_ASC_NODE><ARG_OF_PERICENTER>87.3444</ARG_OF_PERICENTER><MEAN_ANOMALY>99.1905</MEAN_ANOMALY></meanElements><tleParameters><EPHEMERIS_TYPE>0</EPHEMERIS_TYPE><CLASSIFICATION_TYPE>U</CLASSIFICATION_TYPE><NORAD_CAT_ID>65138</NORAD_CAT_ID><ELEMENT_SET_NO>999</ELEMENT_SET_NO><REV_AT_EPOCH>521</REV_AT_EPOCH><BSTAR>-.48611421E-1</BSTAR><MEAN_MOTION_DOT>-.1194682E-1</MEAN_MOTION_DOT><MEAN_MOTION_DDOT>0</MEAN_MOTION_DDOT></tleParameters></data></segment></body></omm>
<omm id="CCSDS_OMM_VERS" version="2.0">
<header><CREATION_DATE/><ORIGINATOR/></header><body><segment><metadata><OBJECT_NAME>KUIPER-00100</OBJECT_NAME><OBJECT_ID>2025-171H</OBJECT_ID><CENTER_NAME>EARTH</CENTER_NAME><REF_FRAME>TEME</REF_FRAME><TIME_SYSTEM>UTC</TIME_SYSTEM><MEAN_ELEMENT_THEORY>SGP4</MEAN_ELEMENT_THEORY></metadata><data><meanElements><EPOCH>2025-11-07T00:00:02.999808</EPOCH><MEAN_MOTION>15.32074107</MEAN_MOTION><ECCENTRICITY>.00049171</ECCENTRICITY><INCLINATION>51.8784</INCLINATION><RA_OF_ASC_NODE>342.3307</RA_OF_ASC_NODE><ARG_OF_PERICENTER>58.3538</ARG_OF_PERICENTER><MEAN_ANOMALY>273.2917</MEAN_ANOMALY></meanElements><tleParameters><EPHEMERIS_TYPE>0</EPHEMERIS_TYPE><CLASSIFICATION_TYPE>U</CLASSIFICATION_TYPE><NORAD_CAT_ID>65139</NORAD_CAT_ID><ELEMENT_SET_NO>999</ELEMENT_SET_NO><REV_AT_EPOCH>263</REV_AT_EPOCH><BSTAR>-.20303613E-1</BSTAR><MEAN_MOTION_DOT>-.597507E-2</MEAN_MOTION_DOT><MEAN_MOTION_DDOT>0</MEAN_MOTION_DDOT></tleParameters></data></segment></body></omm>
<omm id="CCSDS_OMM_VERS" version="2.0">
<header><CREATION_DATE/><ORIGINATOR/></header><body><segment><metadata><OBJECT_NAME>KUIPER-00102</OBJECT_NAME><OBJECT_ID>2025-171J</OBJECT_ID><CENTER_NAME>EARTH</CENTER_NAME><REF_FRAME>TEME</REF_FRAME><TIME_SYSTEM>UTC</TIME_SYSTEM><MEAN_ELEMENT_THEORY>SGP4</MEAN_ELEMENT_THEORY></metadata><data><meanElements><EPOCH>2025-11-07T00:00:02.999808</EPOCH><MEAN_MOTION>15.28936392</MEAN_MOTION><ECCENTRICITY>.00079225</ECCENTRICITY><INCLINATION>51.8789</INCLINATION><RA_OF_ASC_NODE>342.7744</RA_OF_ASC_NODE><ARG_OF_PERICENTER>71.1681</ARG_OF_PERICENTER><MEAN_ANOMALY>25.3476</MEAN_ANOMALY></meanElements><tleParameters><EPHEMERIS_TYPE>0</EPHEMERIS_TYPE><CLASSIFICATION_TYPE>U</CLASSIFICATION_TYPE><NORAD_CAT_ID>65140</NORAD_CAT_ID><ELEMENT_SET_NO>999</ELEMENT_SET_NO><REV_AT_EPOCH>486</REV_AT_EPOCH><BSTAR>-.54248706E-1</BSTAR><MEAN_MOTION_DOT>-.1405851E-1</MEAN_MOTION_DOT><MEAN_MOTION_DDOT>0</MEAN_MOTION_DDOT></tleParameters></data></segment></body></omm>
<omm id="CCSDS_OMM_VERS" version="2.0">
<header><CREATION_DATE/><ORIGINATOR/></header><body><segment><metadata><OBJECT_NAME>KUIPER-00103</OBJECT_NAME><OBJECT_ID>2025-171K</OBJECT_ID><CENTER_NAME>EARTH</CENTER_NAME><REF_FRAME>TEME</REF_FRAME><TIME_SYSTEM>UTC</TIME_SYSTEM><MEAN_ELEMENT_THEORY>SGP4</MEAN_ELEMENT_THEORY></metadata><data><meanElements><EPOCH>2025-11-06T12:33:56.156832</EPOCH><MEAN_MOTION>14.79843269</MEAN_MOTION><ECCENTRICITY>.00069905</ECCENTRICITY><INCLINATION>51.8991</INCLINATION><RA_OF_ASC_NODE>355.2247</RA_OF_ASC_NODE><ARG_OF_PERICENTER>89.2975</ARG_OF_PERICENTER><MEAN_ANOMALY>270.8788</MEAN_ANOMALY></meanElements><tleParameters><EPHEMERIS_TYPE>0</EPHEMERIS_TYPE><CLASSIFICATION_TYPE>U</CLASSIFICATION_TYPE><NORAD_CAT_ID>65141</NORAD_CAT_ID><ELEMENT_SET_NO>999</ELEMENT_SET_NO><REV_AT_EPOCH>1447</REV_AT_EPOCH><BSTAR>.72881484E-3</BSTAR><MEAN_MOTION_DOT>.5328E-4</MEAN_MOTION_DOT><MEAN_MOTION_DDOT>0</MEAN_MOTION_DDOT></tleParameters></data></segment></body></omm>

</ndm>
